{"type": "FeatureCollection", "features": [ {"type": "Feature", "properties": {"norad_id": 66052, "name": "HRC MONOBLOCK CAMERA", "group": "stations", "lat": 51.34322238670546, "lon": 175.52592608406934, "alt_km": 397.0132612534626, "timestamp": "2025-12-22T08:58:19.081050+00:00", "meta": {"OBJECT_NAME": "HRC MONOBLOCK CAMERA", "OBJECT_ID": "1998-067XR", "EPOCH": "2025-12-21T17:10:53.034240", "MEAN_MOTION": 15.54728821, "ECCENTRICITY": 0.0002303, "INCLINATION": 51.6309, "RA_OF_ASC_NODE": 96.7319, "ARG_OF_PERICENTER": 227.1692, "MEAN_ANOMALY": 132.9105, "EPHEMERIS_TYPE": 0, "CLASSIFICATION_TYPE": "U", "NORAD_CAT_ID": 66052, "ELEMENT_SET_NO": 999, "REV_AT_EPOCH": 1023, "BSTAR": 0.00048538, "MEAN_MOTION_DOT": 0.00032497, "MEAN_MOTION_DDOT": 0}, "tle": {"line1": "1 66052U 98067XR  25355.71589160  .00032497  00000+0  48538-3 0  9991", "line2": "2 66052  51.6309  96.7319 0002303 227.1692 132.9105 15.54728821 10237"}}, "geometry": {"type": "Point", "coordinates": [175.52592608406934, 51.34322238670546]}}, {"type": "Feature", "properties": {"norad_id": 66174, "name": "HTV-X1", "group": "stations", "lat": 7.682280944438516, "lon": -91.3676588587559, "alt_km": 418.1193954130131, "timestamp": "2025-12-22T08:58:19.081061+00:00", "meta": {"OBJECT_NAME": "HTV-X1", "OBJECT_ID": "2025-241A", "EPOCH": "2025-12-21T13:40:08.668128", "MEAN_MOTION": 15.49703708, "ECCENTRICITY": 0.00031656, "INCLINATION": 51.6324, "RA_OF_ASC_NODE": 98.7522, "ARG_OF_PERICENTER": 281.5679, "MEAN_ANOMALY": 78.4955, "EPHEMERIS_TYPE": 0, "CLASSIFICATION_TYPE": "U", "NORAD_CAT_ID": 66174, "ELEMENT_SET_NO": 999, "REV_AT_EPOCH": 51, "BSTAR": 0.0001683656, "MEAN_MOTION_DOT": 9.066e-05, "MEAN_MOTION_DDOT": 0}, "tle": {"line1": "1 66174U 25241A   25355.56954477  .00009066  00000+0  16837-3 0  9993", "line2": "2 66174  51.6324  98.7522 0003165 281.5679  78.4955 15.49703708   511"}}, "geometry": {"type": "Point", "coordinates": [-91.3676588587559, 7.682280944438516]}}, {"type": "Feature", "properties": {"norad_id": 66515, "name": "SZ-21 MODULE", "group": "stations", "lat": -25.277954988858585, "lon": -75.06197686373329, "alt_km": 377.72504799468607, "timestamp": "2025-12-22T08:58:19.081071+00:00", "meta": {"OBJECT_NAME": "SZ-21 MODULE", "OBJECT_ID": "2025-246C", "EPOCH": "2025-12-21T02:28:16.865472", "MEAN_MOTION": 15.62895195, "ECCENTRICITY": 0.00053926, "INCLINATION": 41.4772, "RA_OF_ASC_NODE": 325.0132, "ARG_OF_PERICENTER": 304.7401, "MEAN_ANOMALY": 55.2931, "EPHEMERIS_TYPE": 0, "CLASSIFICATION_TYPE": "U", "NORAD_CAT_ID": 66515, "ELEMENT_SET_NO": 999, "REV_AT_EPOCH": 575, "BSTAR": 0.00023274036, "MEAN_MOTION_DOT": 0.00021377, "MEAN_MOTION_DDOT": 0}, "tle": {"line1": "1 66515U 25246C   25355.10297298  .00021377  00000+0  23274-3 0  9990", "line2": "2 66515  41.4772 325.0132 0005392 304.7401  55.2931 15.62895195  5757"}}, "geometry": {"type": "Point", "coordinates": [-75.06197686373329, -25.277954988858585]}}, {"type": "Feature", "properties": {"norad_id": 66645, "name": "SHENZHOU-22", "group": "stations", "lat": -36.82723975085561, "lon": -99.78911169552472, "alt_km": 397.1042213289311, "timestamp": "2025-12-22T08:58:19.081081+00:00", "meta": {"OBJECT_NAME": "SHENZHOU-22", "OBJECT_ID": "2025-272A", "EPOCH": "2025-12-21T13:16:11.322912", "MEAN_MOTION": 15.59533817, "ECCENTRICITY": 0.0007788, "INCLINATION": 41.4687, "RA_OF_ASC_NODE": 323.1886, "ARG_OF_PERICENTER": 108.2472, "MEAN_ANOMALY": 251.9215, "EPHEMERIS_TYPE": 0, "CLASSIFICATION_TYPE": "U", "NORAD_CAT_ID": 66645, "ELEMENT_SET_NO": 999, "REV_AT_EPOCH": 26519, "BSTAR": 0.00020086225, "MEAN_MOTION_DOT": 0.00016128, "MEAN_MOTION_DDOT": 0}, "tle": {"line1": "1 66645U 25272A   25355.55290883  .00016128  00000+0  20086-3 0  9991", "line2": "2 66645  41.4687 323.1886 0007788 108.2472 251.9215 15.59533817265199"}}, "geometry": {"type": "Point", "coordinates": [-99.78911169552472, -36.82723975085561]}}, {"type": "Feature", "properties": {"norad_id": 66664, "name": "SOYUZ-MS 28", "group": "stations", "lat": 7.67743976109272, "lon": -91.3632993987665, "alt_km": 418.114691754422, "timestamp": "2025-12-22T08:58:19.081091+00:00", "meta": {"OBJECT_NAME": "SOYUZ-MS 28", "OBJECT_ID": "2025-275A", "EPOCH": "2025-12-21T16:45:51.816096", "MEAN_MOTION": 15.49707977, "ECCENTRICITY": 0.000316, "INCLINATION": 51.6324, "RA_OF_ASC_NODE": 98.1136, "ARG_OF_PERICENTER": 282.2378, "MEAN_ANOMALY": 77.8256, "EPHEMERIS_TYPE": 0, "CLASSIFICATION_TYPE": "U", "NORAD_CAT_ID": 66664, "ELEMENT_SET_NO": 999, "REV_AT_EPOCH": 383, "BSTAR": 0.00019136, "MEAN_MOTION_DOT": 0.0001037, "MEAN_MOTION_DDOT": 0}, "tle": {"line1": "1 66664U 25275A   25355.69851639  .00010370  00000+0  19136-3 0  9999", "line2": "2 66664  51.6324  98.1136 0003160 282.2378  77.8256 15.49707977  3836"}}, "geometry": {"type": "Point", "coordinates": [-91.3632993987665, 7.67743976109272]}}, {"type": "Feature", "properties": {"norad_id": 66906, "name": "1998-067XS", "group": "stations", "lat": -43.22571346900341, "lon": -37.250546544151824, "alt_km": 416.01266821621994, "timestamp": "2025-12-22T08:58:19.081103+00:00", "meta": {"OBJECT_NAME": "1998-067XS", "OBJECT_ID": "1998-067XS", "EPOCH": "2025-12-21T16:28:28.030656", "MEAN_MOTION": 15.51020739, "ECCENTRICITY": 0.0002929, "INCLINATION": 51.6318, "RA_OF_ASC_NODE": 98.0337, "ARG_OF_PERICENTER": 244.8837, "MEAN_ANOMALY": 115.1848, "EPHEMERIS_TYPE": 0, "CLASSIFICATION_TYPE": "U", "NORAD_CAT_ID": 66906, "ELEMENT_SET_NO": 999, "REV_AT_EPOCH": 300, "BSTAR": 0.0004307, "MEAN_MOTION_DOT": 0.00025109, "MEAN_MOTION_DDOT": 0}, "tle": {"line1": "1 66906U 98067XS  25355.68643554  .00025109  00000+0  43070-3 0  9991", "line2": "2 66906  51.6318  98.0337 0002929 244.8837 115.1848 15.51020739  3005"}}, "geometry": {"type": "Point", "coordinates": [-37.250546544151824, -43.22571346900341]}}, {"type": "Feature", "properties": {"norad_id": 66907, "name": "1998-067XT", "group": "stations", "lat": -43.7078898806959, "lon": 45.27288228702091, "alt_km": 411.082550481161, "timestamp": "2025-12-22T08:58:19.081113+00:00", "meta": {"OBJECT_NAME": "1998-067XT", "OBJECT_ID": "1998-067XT", "EPOCH": "2025-12-21T16:14:38.830848", "MEAN_MOTION": 15.52487606, "ECCENTRICITY": 0.0003834, "INCLINATION": 51.6315, "RA_OF_ASC_NODE": 97.969, "ARG_OF_PERICENTER": 280.3147, "MEAN_ANOMALY": 79.741, "EPHEMERIS_TYPE": 0, "CLASSIFICATION_TYPE": "U", "NORAD_CAT_ID": 66907, "ELEMENT_SET_NO": 999, "REV_AT_EPOCH": 300, "BSTAR": 0.00094407, "MEAN_MOTION_DOT": 0.00058863, "MEAN_MOTION_DDOT": 0}, "tle": {"line1": "1 66907U 98067XT  25355.67683832  .00058863  00000+0  94407-3 0  9997", "line2": "2 66907  51.6315  97.9690 0003834 280.3147  79.7410 15.52487606  3009"}}, "geometry": {"type": "Point", "coordinates": [45.27288228702091, -43.7078898806959]}}, {"type": "Feature", "properties": {"norad_id": 66908, "name": "1998-067XU", "group": "stations", "lat": -40.966159102302186, "lon": 51.025542757523894, "alt_km": 410.8085928123028, "timestamp": "2025-12-22T08:58:19.081124+00:00", "meta": {"OBJECT_NAME": "1998-067XU", "OBJECT_ID": "1998-067XU", "EPOCH": "2025-12-21T00:46:29.963136", "MEAN_MOTION": 15.52510982, "ECCENTRICITY": 0.00039042, "INCLINATION": 51.6311, "RA_OF_ASC_NODE": 101.1653, "ARG_OF_PERICENTER": 276.2494, "MEAN_ANOMALY": 83.8051, "EPHEMERIS_TYPE": 0, "CLASSIFICATION_TYPE": "U", "NORAD_CAT_ID": 66908, "ELEMENT_SET_NO": 999, "REV_AT_EPOCH": 290, "BSTAR": 0.00080289362, "MEAN_MOTION_DOT": 0.00049977, "MEAN_MOTION_DDOT": 0}, "tle": {"line1": "1 66908U 98067XU  25355.03229124  .00049977  00000+0  80289-3 0  9997", "line2": "2 66908  51.6311 101.1653 0003904 276.2494  83.8051 15.52510982  2909"}}, "geometry": {"type": "Point", "coordinates": [51.025542757523894, -40.966159102302186]}}, {"type": "Feature", "properties": {"norad_id": 66909, "name": "SILVERSAT", "group": "stations", "lat": -36.79005400702567, "lon": 58.14253468082755, "alt_km": 410.1260302952451, "timestamp": "2025-12-22T08:58:19.081134+00:00", "meta": {"OBJECT_NAME": "SILVERSAT", "OBJECT_ID": "1998-067XV", "EPOCH": "2025-12-21T16:11:43.946016", "MEAN_MOTION": 15.52760734, "ECCENTRICITY": 0.0003783, "INCLINATION": 51.6311, "RA_OF_ASC_NODE": 97.9558, "ARG_OF_PERICENTER": 283.7129, "MEAN_ANOMALY": 76.344, "EPHEMERIS_TYPE": 0, "CLASSIFICATION_TYPE": "U", "NORAD_CAT_ID": 66909, "ELEMENT_SET_NO": 999, "REV_AT_EPOCH": 300, "BSTAR": 0.0010102, "MEAN_MOTION_DOT": 0.00063686, "MEAN_MOTION_DDOT": 0}, "tle": {"line1": "1 66909U 98067XV  25355.67481419  .00063686  00000+0  10102-2 0  9994", "line2": "2 66909  51.6311  97.9558 0003783 283.7129  76.3440 15.52760734  3002"}}, "geometry": {"type": "Point", "coordinates": [58.14253468082755, -36.79005400702567]}}, {"type": "Feature", "properties": {"norad_id": 66910, "name": "1998-067XW", "group": "stations", "lat": -30.210699177243225, "lon": 66.98278571036944, "alt_km": 410.86044318241056, "timestamp": "2025-12-22T08:58:19.081144+00:00", "meta": {"OBJECT_NAME": "1998-067XW", "OBJECT_ID": "1998-067XW", "EPOCH": "2025-12-21T16:09:10.414944", "MEAN_MOTION": 15.52740161, "ECCENTRICITY": 0.0004064, "INCLINATION": 51.6307, "RA_OF_ASC_NODE": 97.9437, "ARG_OF_PERICENTER": 256.0944, "MEAN_ANOMALY": 103.9594, "EPHEMERIS_TYPE": 0, "CLASSIFICATION_TYPE": "U", "NORAD_CAT_ID": 66910, "ELEMENT_SET_NO": 999, "REV_AT_EPOCH": 300, "BSTAR": 0.0009079, "MEAN_MOTION_DOT": 0.000571, "MEAN_MOTION_DDOT": 0}, "tle": {"line1": "1 66910U 98067XW  25355.67303721  .00057100  00000+0  90790-3 0  9991", "line2": "2 66910  51.6307  97.9437 0004064 256.0944 103.9594 15.52740161  3005"}}, "geometry": {"type": "Point", "coordinates": [66.98278571036944, -30.210699177243225]}}]}